{"type":"Topology","arcs":[[[91052,17883],[-4378,2068],[-158,180],[198,246],[15,152],[-229,139],[1,251],[-214,217],[-39,624],[-102,263],[-176,248],[-411,131],[-81,81],[-385,-220],[-141,177],[-220,0],[-128,-258],[-360,-53],[-194,93],[-429,-270],[-112,75],[-617,171],[-107,156],[-277,-52],[-111,83],[-341,-222],[-319,-11],[-379,138],[-146,-61],[-171,185],[-154,-90],[-408,167],[-117,184],[-379,157],[-287,-169],[-232,92],[-361,44],[-341,-185],[-127,-306],[144,-244],[-291,38],[-137,-188],[-146,6],[-146,176],[-175,-46],[-470,462],[-190,442],[-208,46],[-251,233],[-141,236],[-283,105],[-67,119],[-255,99],[-265,269],[-464,148],[71,162],[-50,218],[-244,-36],[-188,79],[-133,282],[18,887],[-150,-10],[-216,228],[-556,63],[-120,139],[-432,207],[-82,-69],[-34,-70],[-24,-225],[-16,-37],[-15,-24],[-143,-101],[-131,-29],[-25,-24],[-122,77],[11,23],[18,109],[-54,100],[-81,124],[-139,172],[-139,500],[82,145],[-131,22],[-235,337],[-6,27],[-121,114],[-42,12],[-18,0],[-97,-10],[-191,203],[-72,0],[-106,-43],[-61,1],[-47,-44],[-8,59],[-93,-1],[-340,33],[-169,7],[-179,-140],[-4,-38],[-207,-55],[-182,38],[-210,167],[-422,92],[-31,17],[-325,36],[-95,98],[-58,33]],[[68946,28064],[56,51],[0,25],[-6,14564]],[[68996,42704],[19553,0],[183,126],[158,363],[202,83],[166,187],[276,160],[230,261],[332,64],[328,-106],[628,-12],[96,95],[259,61],[265,-23],[149,89],[197,-244],[221,-140],[424,-23],[295,126],[456,-284],[178,-29],[179,-273],[287,-146],[183,-159],[12,-472],[87,-189],[194,-37],[266,313],[107,344],[317,132],[387,-152],[436,152],[70,125],[11,389],[-214,620],[151,-18],[131,167],[222,102],[139,-47],[227,251],[188,-16],[190,319],[154,-137],[347,-16],[206,-152],[317,158],[132,-84],[430,-56],[162,242],[140,28],[242,82],[146,6],[214,227],[142,-60]],[[99794,45101],[127,-235],[-76,-568],[32,-399],[122,-153],[-55,-388],[32,-199],[-355,-512],[-77,-240],[59,-115],[-276,-456],[79,-201],[-35,-467],[-74,-178],[4,-257],[-103,-231],[-79,-579],[-154,-258],[24,-338],[-164,-290],[-10,-175],[-257,-535],[-28,-433],[-78,-246],[62,-376],[189,-179],[-127,-237],[40,-222],[-218,-390],[-5,-273],[-121,-300],[56,-194],[-228,-283],[11,-200],[-108,-260],[-171,-235],[45,-100],[-358,-297],[-149,-237],[-96,-421],[152,-126],[-117,-280],[41,-385],[-502,-244],[-124,-197],[-220,-155],[-556,-196],[223,-61],[250,77],[26,-152],[-705,-224],[-207,-136],[-325,-487],[-180,120],[-116,-227],[230,4],[-9,-259],[-177,-200],[-225,-111],[-88,-173],[119,-96],[-173,-434],[-264,-91],[82,-204],[-62,-343],[-156,-298],[77,-140],[-48,-222],[-241,54],[-69,-156],[78,-243],[-108,-150],[-342,-274],[-149,-248],[-63,-266],[16,-249],[-130,-354],[-46,-409],[-215,-293],[86,-384],[-279,-147],[75,-250],[-237,-98],[-312,-396],[1,-221],[-211,-283],[8,-200],[-238,-333],[-55,-222],[-311,-489],[18,-341],[-82,-391],[60,-365],[-201,-384],[4,-454],[-210,-432],[-192,-620],[106,-300],[-185,-192],[242,-101],[147,-350],[-214,-117],[81,-663]],[[89633,24262],[-404,222],[-173,295],[-107,51],[-769,-541],[2,-212],[-103,-242],[1,-531],[218,-310],[131,-290],[343,-197],[115,218],[34,435],[-77,323],[180,231],[-12,269],[150,202],[471,77]],[[91052,17883],[-173,-110],[-213,-6],[-199,-117],[-151,-292],[-443,-200],[-30,-64],[-886,-5],[-775,-27],[-448,-64],[-828,-8],[-829,-242],[-403,-179],[-359,-238],[-407,-335],[-1005,-944],[-453,-465],[-1091,-190],[-479,49],[-144,-176],[208,-341],[356,23],[145,-187],[-93,-189],[-49,-422],[-366,392],[-191,344],[-383,176],[-133,-239],[-159,67],[-237,464],[-218,199],[-302,-99],[-302,358],[-148,57],[25,297],[283,184],[-147,404],[-349,58],[-298,-172],[-37,-310],[-395,-150],[-61,-132],[-340,-6],[-88,317],[324,211],[333,440],[3,211],[-250,267],[-117,353],[-140,55],[-243,-97],[-37,-140],[-363,-229],[-334,-128],[-22,-134],[-267,51],[-104,-185],[301,-79],[196,28],[180,138],[217,-192],[-237,-228],[-478,-88],[-237,-122],[-192,-210],[-534,-235],[-153,-261],[-338,-372],[-382,-130],[-313,-345],[-106,-6],[-202,217],[-177,86],[-304,-37],[-374,337],[-160,77],[-388,56],[-723,535],[-225,52],[-244,160],[-557,-123],[-352,237],[-298,130],[-342,37],[-345,-175],[119,-233],[-597,70],[-122,275],[-319,304],[-489,289],[-155,45]],[[68910,16275],[20,1733],[-26,5001],[1,5159],[41,-104]],[[80060,15405],[-239,-54],[-132,-138],[-186,83],[185,234],[247,13],[125,-138]],[[68996,42704],[-3,0],[0,8762],[-7372,-1]],[[61621,51465],[5,27583]],[[61626,79048],[429,-414],[363,-187],[256,-78],[494,27],[129,-94],[490,-225],[388,-103],[118,-251],[175,-90],[-7,-393],[203,-455],[168,-131],[274,-29],[146,-76],[417,-401],[399,-116],[316,-155],[164,-244],[219,-23],[715,130],[514,234],[285,257],[293,159],[144,213],[62,435],[68,142],[16,420],[66,207],[224,290],[43,196],[300,324],[70,304],[93,88],[84,294],[-47,143],[86,191],[74,361],[201,421],[-99,360],[104,857],[110,463],[220,590],[27,286],[128,108],[77,460],[-180,428],[-90,773],[-69,307],[187,714],[-7,411],[-288,433],[-36,260],[138,852],[251,567],[140,219],[21,193],[-151,226],[-29,348],[-85,127],[130,256],[182,87],[129,182],[159,491],[-165,319],[-330,-129],[-83,71],[537,1489],[187,186],[112,-251],[197,93],[-172,273],[48,364],[98,197],[122,579],[168,544],[92,720],[-77,409],[166,194],[224,-8],[163,101],[214,511],[228,60],[193,-180],[-243,-327],[261,-90],[-18,-122],[263,-79],[171,-330],[19,-597],[184,-300],[-88,-152],[4,-368],[62,-222],[-30,-549],[152,-193],[261,-139],[191,98],[133,-45],[94,-208],[-208,-452],[-55,-560],[250,-16],[230,-187],[-4,-293],[360,-316],[-150,-533],[116,-202],[342,73],[-112,-312],[41,-170],[-29,-298],[48,-194],[25,-481],[160,-236],[-26,-322],[-92,-288],[-46,-360],[147,-301],[76,-320],[144,-138],[56,-566],[103,-363],[181,-317],[160,-118],[356,2],[162,106],[249,308],[-1,229],[361,-137],[229,144],[196,269],[197,-275],[-23,-292],[158,7],[-80,-341],[237,-250],[166,-95],[314,-60],[125,-364],[154,-164],[273,-117],[232,11],[-23,-150],[153,-211],[177,-80],[-160,-175],[-136,-282],[92,-347],[39,-342],[-98,-120],[185,-449],[-24,-224],[119,-212],[38,-348],[-35,-243],[126,-84],[155,-365],[-88,-288],[93,-272],[-149,-206],[-33,-277],[435,-741],[219,-146],[342,-502],[362,37],[-140,-248],[-27,-222],[146,-213],[56,-325],[120,-305],[129,-140],[-12,-338],[199,-403],[-88,-129],[-55,-313],[70,-163],[-62,-344],[-212,-428],[20,-363],[351,-444],[164,-296],[276,-82],[-15,-334],[-74,-187],[-71,-452],[154,-280],[291,-344],[266,-200],[285,-141],[220,17],[57,-162],[225,-184],[437,137],[11,-250],[172,-189],[275,-75],[141,73],[336,-40],[291,-377],[67,-509],[208,-302],[165,-54],[55,349],[154,52],[102,-413],[130,-167],[182,-56],[216,133],[79,-174],[266,-42],[247,-526],[248,-71],[48,251],[274,-58],[73,-301],[192,-56],[383,-306],[166,-486],[-67,-116],[-183,186],[-165,-90],[-61,-304],[99,-343],[271,-217],[21,-162],[161,-133],[280,-16],[-36,-275],[183,47],[170,-72],[159,-430],[-91,-148],[173,-135],[145,-320],[-100,-360],[298,-45],[-54,-122],[276,-104],[-116,-202],[78,-200],[-98,-109],[101,-271],[-16,-254],[143,-296],[181,-742],[145,-159],[184,-35],[292,-199],[94,-224],[282,-109],[-221,547],[106,459],[253,154],[227,-371],[64,-294],[97,-97],[410,-209],[164,-167],[301,-159],[-98,371],[71,389],[258,-87],[64,-245],[133,-66],[-136,-293],[352,-381],[-112,-530],[-44,-555],[-54,-213],[110,-99],[75,-343],[-87,-86],[51,-283],[150,-215],[17,-210],[138,25],[226,-82],[28,-151],[206,-139],[126,-422],[357,-113],[90,-237],[176,-150],[340,-145],[499,-68],[91,-249],[174,-76],[166,-200],[154,-565],[350,-562],[309,-249],[257,-59],[220,-245],[44,-451],[316,-621],[264,-252],[436,-33],[66,-551],[-126,-253],[78,-501],[391,-459],[235,-188],[-209,-802],[-38,-258],[144,-193],[-69,-404],[17,-364],[100,-107],[-67,-556],[-104,-112],[-65,-179],[248,-309],[-191,-103],[-91,-210],[146,-69],[-48,-314],[235,-244],[104,-246],[131,-8],[153,-630],[171,-22],[84,-206],[-75,-314],[81,-152],[52,-424],[207,-275]],[[99824,47269],[-162,-426],[-66,-432],[-150,63],[71,190],[-23,381],[69,292],[261,-68]],[[99632,48455],[-120,-511],[-133,6],[-11,410],[264,95]],[[98358,52699],[95,181],[-5,186],[159,300],[-54,493],[321,271],[153,257],[9,244],[-140,233],[19,259],[221,114],[9,-552],[221,-330],[-423,-1063],[-197,-552],[-73,-317],[27,-260],[-124,-102],[-119,218],[-99,420]],[[98990,48299],[-102,-51],[-213,370],[-5,182],[130,105],[190,-606]],[[94341,57995],[-287,-60],[-169,322],[-202,135],[-37,154],[-105,212],[67,132],[339,-172],[116,-2],[114,-423],[164,-298]],[[81864,73977],[243,-438],[-31,-158],[-187,-7],[-236,513],[-60,229],[271,-139]],[[73419,99967],[-230,-154],[-148,186],[378,-32]],[[72297,97643],[-161,-256],[-233,205],[202,215],[192,-164]],[[72133,96084],[-313,-171],[-97,301],[188,186],[222,-316]],[[71925,97836],[-143,-213],[-121,194],[238,155],[26,-136]],[[65830,79089],[-135,32],[-150,-102],[-136,193],[-136,-157],[-84,-363],[-121,76],[-238,-244],[-185,-21],[-156,184],[-11,174],[196,304],[153,121],[397,49],[203,162],[138,-36],[231,-222],[34,-150]],[[65241,77439],[45,233],[156,-157],[-201,-76]],[[68910,16275],[-314,44],[-431,-60],[-357,209],[-347,269],[-315,618],[-332,314],[20,139],[-305,158],[-383,451],[-194,357],[84,182],[-136,339],[-174,186],[289,183],[136,161],[50,251],[-30,310],[-167,550],[-314,691],[-325,521],[-358,441],[-406,402],[-385,307],[-422,269],[-426,127],[-193,-88],[-269,-289],[-605,10],[-293,-55],[-149,97],[77,203],[410,255],[115,220],[246,125],[71,323],[-2,379],[119,225],[-102,512],[139,348],[-251,202],[-54,199],[-351,360],[-105,483],[-297,503],[-144,-104],[-103,-241],[13,-268],[-220,-231],[-73,-231],[-56,-790],[-82,-101],[-182,-537],[3,-345],[-298,-156],[-203,148],[-324,57],[-216,-204],[-239,10],[-157,-213],[-424,42],[-141,-172],[-234,0],[-7,268],[234,178],[67,376],[111,313],[196,-78],[450,76],[242,-175],[204,202],[4,224],[123,554],[-88,311],[6,347],[59,235],[16,509],[149,274],[-22,160],[177,195],[-74,132],[307,312],[73,162],[458,572],[-174,355],[20,195],[-151,126],[51,231],[532,269],[-88,232],[-153,159],[-137,594],[107,58],[-188,274],[-253,196],[-35,-223],[145,-220],[-57,-734],[-308,143],[-157,-248],[-380,-339],[-21,-227],[-121,-200],[-59,-410],[-113,-95],[-88,-273],[-271,-365],[-435,-101],[-330,-215],[-142,-14],[-552,-409],[-344,-199],[-176,-168],[-95,-328],[-336,-447],[-121,-18],[-64,-510],[-138,107],[-305,-144],[-173,-307],[-20,-239],[-167,-274],[479,73],[-51,-187],[110,-385],[-522,349],[-195,-12],[-218,-121],[-368,474],[-304,185],[-22,150],[-286,250],[224,67],[148,-351],[288,80],[-235,169],[-24,333],[-104,507],[-164,432],[-19,292],[-220,414],[-349,358],[-485,390],[51,218],[-45,321],[-106,315],[-160,160],[-85,290],[-263,104],[-91,-66],[-264,49],[-301,-160],[-167,137],[3,159],[-167,247],[-64,253],[-212,24],[141,230],[-49,164],[84,174],[216,-71],[122,161],[-59,348],[-128,183],[-229,166],[-207,-16],[-111,-133],[-347,128],[89,172],[158,41],[-266,385],[-180,-22],[-252,467],[-184,49],[-89,-210],[-204,172],[-369,-233],[-453,15],[-123,140],[-453,265],[-190,159],[-569,138],[-286,-35],[-155,-153],[-528,-83],[-314,319],[-772,577],[-778,433],[-721,315],[-300,-215],[-542,-199],[-585,58],[-194,-21],[-525,56],[-877,-48],[-185,-51],[-775,-44],[-1167,-150],[-126,-38]],[[39512,34860],[0,16600]],[[39512,51460],[22109,5]],[[61954,22738],[-231,-184],[-318,130],[-266,27],[-351,-100],[-98,-274],[-392,-281],[-221,224],[-396,71],[-193,-175],[-329,48],[-201,-76],[-151,79],[-236,-97],[-227,216],[-165,41],[-161,248],[134,373],[270,27],[212,115],[703,90],[599,263],[505,-48],[306,-171],[-117,-237],[453,34],[177,-208],[119,220],[258,-19],[153,-98],[164,-238]],[[39512,34860],[-258,-87],[-624,-391],[-806,-374],[-718,-277],[-778,-183],[-459,-226],[-751,-181],[-631,-62],[-452,15],[-245,-47],[-616,71],[-538,151],[-300,-125],[-319,-45],[-368,-222],[-662,-532],[-533,-172],[-523,-313],[-187,-40],[-323,-303],[-378,-196],[-853,-143],[-381,-200],[-338,-463],[-253,-730],[-54,-386],[-248,-118],[-291,-362],[18,-210],[-469,-270],[-50,-117],[-446,93],[-293,-297],[-219,-55],[-5,206],[-191,217],[-624,-112],[-517,50],[-268,-177],[-358,116],[-220,-134],[-62,-131],[-228,-26],[-175,323],[-207,214],[-211,-26],[-124,-153],[-184,-53],[-233,139],[-119,-76],[-246,173],[-454,37],[-464,-151],[-180,54],[-225,-71],[-343,49],[-140,-88],[-536,0],[-86,-117],[-299,-133],[-298,87],[-341,21],[-123,-57],[-207,91],[-241,-159],[-230,23],[-169,-166],[-453,-315],[-230,-447],[9,-208],[-226,-41],[-32,-231],[-277,1],[-124,-187],[-299,134],[-385,55],[-115,-151],[-252,-19],[-177,-187],[-42,-243],[-498,-176],[-196,-127],[-106,-338],[-545,-185],[-345,-235],[-135,87],[-148,-131],[70,-270],[-457,215],[-188,33],[-140,-203],[-367,114],[-270,304],[-105,-140],[-562,-44],[-347,39],[-87,-132],[-376,145],[-271,-107],[-465,163],[-510,337],[-313,104],[-256,22],[-202,339],[-502,531],[-406,340],[-393,233],[-382,104],[-352,-100],[-234,257],[37,160],[-118,291],[24,242],[-61,441],[59,205],[-61,280],[131,187],[-60,213],[125,50],[168,-233],[434,-91],[314,136],[359,451],[152,423],[112,98],[16,486],[-195,1290],[341,59],[-70,239],[77,364],[-47,378],[107,340],[-58,500],[2,508],[-162,568],[-260,459],[-100,257],[-241,381],[-315,889],[-319,587],[-307,764],[-30,639],[-115,197],[17,188],[-126,322],[69,402],[-61,663],[97,555],[-174,528],[-134,572],[-577,697],[-62,241],[-38,536],[-155,342],[-247,292],[-270,471],[-207,133],[-158,223],[-170,760],[142,419],[-145,594],[-342,795],[-447,881],[-488,752],[-707,791],[7,169],[-252,491],[297,-198],[169,85],[104,217],[125,-387],[196,-241],[43,-441],[159,-335],[237,6],[355,318],[-5,505],[-204,243],[-270,101],[-119,279],[-145,72],[-52,440],[-102,78],[-96,398],[-158,171],[43,289],[195,357],[34,-305],[122,-85],[78,-226],[283,-231],[31,-642],[-84,-91],[3,-254],[150,-234],[125,97],[162,323],[168,-218],[62,-583],[287,-338],[297,252],[68,257],[-115,338],[123,7],[40,532],[-63,315],[-277,351],[-317,482],[-113,383],[-104,142],[-245,738],[-221,157],[-114,236],[-2,370],[-117,108],[14,329],[-531,764],[-2,529],[-39,230],[130,124],[-52,405],[90,85],[28,336],[239,427],[113,354],[344,300],[61,146],[40,531],[-75,345],[161,429],[-32,362],[-150,439],[-214,372],[-7,230],[178,231],[28,182],[176,300],[113,451],[315,805],[277,210],[101,-185],[-27,-266],[-142,-573],[11,-108],[230,-473],[-138,-182],[-1,-166],[165,-141],[129,180],[341,52],[180,681],[162,248],[126,354],[137,82],[53,377],[321,157],[476,350],[159,-41],[177,155],[333,127],[132,-17],[344,188],[527,624],[245,92],[199,229],[208,370],[175,113],[489,211],[144,297],[522,127],[330,403],[242,20],[133,164],[201,-255],[174,-45],[224,193],[468,122],[83,-262],[327,-86],[484,81],[212,128],[181,-89],[221,113],[290,292],[70,221],[629,414],[88,-88],[279,112],[323,-58],[207,161],[283,-94],[371,158],[168,306],[154,119],[86,266],[551,241],[252,-109],[369,-44],[243,-191],[431,175],[104,110],[455,118],[548,56],[1069,419],[863,435],[560,452],[303,363],[437,723],[323,805],[32,149],[323,330],[-55,295],[124,297],[140,-60],[357,237],[113,189],[164,53],[208,302],[246,93],[136,163],[6,358],[-412,141],[19,209],[-32,551],[-134,363],[12,599],[357,840],[174,203],[199,82],[105,149],[240,-113],[-132,351],[112,219],[143,-113],[238,67],[18,275],[91,288],[309,281],[51,289],[153,25],[20,-758],[242,-200],[39,-248],[115,-33],[29,-348],[163,-132],[137,-402],[228,-386],[22,-222],[164,-101],[211,-346],[142,379],[51,411],[-99,483],[159,97],[278,-256],[179,-89],[-93,333],[241,282],[-241,-13],[-93,216],[-453,620],[59,641],[248,136],[-90,133],[-170,6],[-22,429],[268,39],[190,-57],[-3,-260],[66,-165],[203,-114],[297,264],[306,-46],[136,-85],[106,-317],[274,-30],[131,242],[151,-190],[370,-10],[358,71],[-127,132],[-301,45],[-392,-82],[-32,548],[147,196],[137,-182],[182,161],[-22,318],[70,319],[256,151],[-27,161],[-229,-77],[-187,-428],[-102,208],[-199,65],[-33,387],[100,256],[0,282],[99,201],[301,-83],[189,309],[-48,186],[442,60],[556,-422],[63,359],[-152,109],[-262,-163],[-108,158],[13,274],[-87,133],[116,141],[200,-61],[208,312],[164,-44],[47,-266],[356,102],[87,-154],[177,60],[35,246],[-118,122],[-191,19],[-165,204],[-21,188],[-156,329],[216,265],[118,241],[178,79],[266,-156],[8,203],[330,121],[52,237],[-96,266],[114,257],[188,-313],[-133,-132],[91,-330],[260,96],[136,-203],[-1,-163],[283,212],[190,-51],[-55,365],[131,332],[148,193],[47,309],[-117,146],[-177,-57],[34,411],[96,98],[178,-225],[154,-57],[-101,-330],[90,-309],[208,8],[34,398],[201,240],[218,56],[-88,-256],[278,-252],[209,94],[283,256],[109,186],[6,203],[-163,365],[186,65],[391,23],[254,-229],[-29,-164],[94,-142],[292,7],[96,118],[201,-14],[265,-214],[-7,-230],[209,-80],[325,-304],[53,-153],[175,-176],[63,-249],[152,-280],[194,-54],[83,-255],[160,32],[327,-375],[35,-245],[-166,-452],[-22,-644],[-78,-490],[142,-117],[-36,484],[270,17],[-64,322],[84,264],[150,84],[169,260],[150,-190],[43,403],[172,91],[423,-43],[268,-189],[291,14],[234,-70]],[[39512,83906],[0,-32446]],[[30211,85026],[-49,-276],[-101,-135],[-129,199],[279,212]],[[28831,82395],[-216,-137],[-72,200],[-130,-14],[25,258],[156,108],[237,-415]],[[6280,66824],[-138,-380],[-280,9],[36,153],[274,412],[108,-194]],[[776,51151],[-138,-53],[-110,293],[-215,266],[-199,431],[30,99],[-144,471],[122,314],[167,-402],[93,-439],[195,-348],[-72,-101],[190,-236],[81,-295]],[[87379,9333],[-323,-169],[-100,193],[-204,-114],[-444,50],[-110,212],[350,117],[302,-14],[158,120],[371,-395]],[[78220,7504],[-284,48],[-67,320],[177,83],[72,209],[-85,347],[229,32],[607,-244],[357,-106],[234,58],[459,-191],[161,52],[120,-185],[404,-152],[187,-167],[386,-107],[558,-266],[517,-54],[369,125],[121,-44],[292,204],[222,15],[174,149],[300,99],[398,-84],[222,175],[237,41],[126,-185],[316,152],[160,231],[284,33],[284,-78],[149,55],[187,355],[296,-66],[194,-208],[159,-16],[265,-449],[-150,-368],[30,-439],[68,-118],[-104,-423],[131,-466],[-67,-109],[-51,-555],[126,-199],[-96,-355],[149,-232],[-75,-460],[-131,63],[89,333],[-138,144],[-421,-62],[34,-163],[-173,-208],[33,-321],[-41,-269],[-151,-326],[33,-369],[-204,-263],[-58,-231],[-204,-145],[-256,21],[-187,264],[-430,-315],[-229,-284],[49,-132],[-259,-300],[55,-202],[-102,-168],[-300,3],[-129,-94],[3,-198],[-122,-238],[-134,-48],[-52,-356],[-333,0],[-196,-97],[-320,317],[-417,-44],[-326,121],[-321,-17],[-236,-141],[-111,335],[5,271],[-122,186],[-204,-121],[-135,129],[-50,251],[-308,324],[30,90],[-225,228],[-214,-12],[-189,471],[-108,135],[-40,328],[-210,121],[-110,419],[-55,505],[237,-65],[352,-245],[200,-3],[-427,501],[-34,190],[-215,2],[-19,315],[-151,333],[-292,266],[-178,291],[-177,100],[-95,402],[-253,401],[-64,305],[-187,310],[-46,334],[221,171]],[[87016,9995],[-347,-31],[-257,-146],[-157,166],[-43,311],[-180,207],[-132,371],[-186,-27],[-138,125],[334,328],[188,91],[398,-488],[338,-203],[22,-361],[160,-343]],[[86805,9179],[-172,-310],[-160,85],[44,183],[288,42]],[[86223,1201],[-390,123],[-136,-110],[-211,67],[-20,211],[-188,142],[-19,195],[298,-22],[294,-126],[-111,349],[64,143],[351,-5],[38,-215],[-169,-134],[199,-618]],[[84236,573],[108,387],[185,1],[147,-198],[-143,-381],[-190,29],[-107,162]],[[78649,8786],[240,-182],[-327,-162],[-54,180],[141,164]],[[78749,9359],[-180,-168],[-152,119],[129,158],[203,-109]],[[76706,10796],[-25,-174],[-249,-296],[-373,-64],[41,360],[-131,167],[71,300],[-57,344],[116,50],[134,344],[402,-261],[5,-712],[66,-58]],[[39512,83906],[158,-33],[303,-281],[-48,-188],[113,-298],[100,350],[-35,359],[185,150],[123,-128],[283,-110],[353,-575],[65,113],[-149,608],[139,165],[378,-69],[-503,536],[-34,170],[-269,365],[-289,197],[25,249],[104,298],[134,124],[108,262],[214,37],[311,227],[64,275],[-61,208],[145,170],[21,358],[110,308],[161,183],[265,-101],[241,224],[87,-2],[241,510],[-186,304],[-118,41],[61,673],[86,68],[175,-111],[224,170],[49,241],[-15,400],[212,107],[202,-204],[148,703],[106,215],[347,-141],[56,-324],[131,-20],[138,197],[-152,178],[148,282],[288,20],[43,267],[-85,184],[122,75],[320,-144],[113,-102],[71,266],[120,192],[57,-359],[143,-184],[224,-80],[518,-3],[227,48],[255,157],[148,-170],[320,-90],[249,264],[223,116],[41,-148],[184,74],[89,-110],[129,263],[460,178],[-25,200],[89,371],[-46,197],[-137,105],[34,164],[-233,140],[142,133],[-80,267],[-167,254],[-255,48],[-281,-40],[-248,-192],[-172,-12],[-266,421],[39,85],[-285,172],[65,249],[185,-133],[62,240],[196,-61],[78,-325],[142,-58],[-9,-202],[137,-62],[70,214],[-96,113],[-3,398],[169,-31],[226,78],[139,-260],[92,58],[236,-362],[184,-199],[116,-307],[157,-11],[222,334],[453,-82],[349,-786],[421,-197],[443,-34],[71,-92],[327,-18],[185,106],[136,169],[301,-139],[-229,-192],[270,-239],[240,190],[100,-229],[154,38],[44,-197],[249,-135],[82,147],[150,-161],[352,-111],[280,82],[203,251],[204,9],[175,-444],[155,-120],[164,-15],[207,-307],[167,76],[99,-80],[253,117],[95,293],[224,124],[141,-94],[131,82],[153,-43],[387,267],[76,-205],[-244,-205],[-17,-152],[143,-177],[382,303],[288,20],[-135,-205],[235,-284],[-118,-221],[142,-229],[290,111],[197,-88],[203,245],[119,363],[-24,134],[-306,-5],[-127,161],[222,271],[301,157],[62,154],[286,-96],[167,-615],[119,-197],[143,-55],[276,225],[214,-101],[99,-361],[-113,-66],[-659,-898],[-121,-195],[-139,25],[-115,-243],[166,-218],[225,-100],[-169,-138],[-6,-178],[-276,-483],[-217,81],[13,368],[-217,-285],[-127,38],[-74,-268],[-165,116],[-205,-123],[-95,101],[-229,-156],[-95,-277],[-99,-593],[97,-425],[87,-103],[296,2],[-48,-238],[-147,-353],[-113,-120],[-70,-557],[-222,-147],[-149,-190],[-182,-355],[-90,-14],[-204,-403],[-23,-232],[-357,-248],[121,-540],[117,-190],[249,-202],[146,2],[548,-403],[154,-194],[588,-418],[185,-69],[124,-456],[299,-157],[317,-330],[253,195],[197,-70],[-102,-238],[115,-451],[230,97],[200,-109],[86,164],[157,21],[110,-143],[507,-263],[134,-213],[466,-242],[185,-19],[383,-168],[325,-556],[342,-355]],[[59427,81300],[-163,-183],[-260,403],[162,217],[187,-113],[74,-324]],[[59078,85991],[-70,-367],[-443,96],[-259,-112],[-54,91],[-337,82],[-195,197],[76,135],[-84,429],[68,250],[146,145],[174,32],[158,186],[148,63],[94,-219],[266,-68],[8,285],[176,-182],[-134,-307],[-193,-62],[0,-262],[-195,-265],[65,-217],[182,123],[132,-174],[271,121]],[[58764,81551],[-256,-208],[8,325],[248,-117]],[[58591,95144],[-147,-533],[-203,-270],[-99,64],[182,282],[121,50],[146,407]],[[58226,81934],[-68,-262],[-188,66],[29,267],[227,-71]],[[57635,93524],[-284,-229],[9,261],[275,-32]],[[57450,87248],[-222,-262],[-260,24],[187,232],[44,208],[135,-25],[116,-177]],[[56846,93321],[-154,-193],[-81,142],[235,51]],[[56058,92494],[-1,-190],[-240,-47],[-106,196],[347,41]],[[48322,95264],[38,-381],[-55,-123],[97,-364],[-158,-76],[-156,454],[16,287],[218,203]],[[42954,94167],[6,179],[-101,148],[120,223],[189,-255],[259,-79],[-94,-274],[206,31],[203,-285],[26,245],[282,94],[120,132],[223,-90],[437,216],[301,209],[348,-321],[127,-277],[151,-155],[-192,-134],[12,-321],[-223,46],[-111,-254],[-373,-328],[-246,-130],[-326,-303],[-214,249],[-148,28],[-440,355],[-320,200],[3,265],[-152,180],[-73,406]],[[42488,93149],[26,122],[-164,523],[58,181],[123,64],[53,177],[211,81],[163,-376],[-4,-269],[151,-103],[11,-266],[216,-77],[209,-187],[-70,-188],[-268,-27],[-470,174],[-446,-159],[-263,81],[243,263],[221,-14]]],"transform":{"scale":[0.00040697290972909725,0.0003426903269032691],"translate":[112.921124,-43.633411]},"objects":{"states":{"type":"GeometryCollection","geometries":[{"arcs":[[0,1,2,3],[4]],"type":"Polygon","properties":{"STATE_CODE":"1","STATE_NAME":"New South Wales"}},{"arcs":[[[-1,5,6]],[[7]]],"type":"MultiPolygon","properties":{"STATE_CODE":"2","STATE_NAME":"Victoria"}},{"arcs":[[[-3,8,9,10]],[[11]],[[12]],[[13]],[[14]],[[15]],[[16]],[[17]],[[18]],[[19]],[[20]],[[21]],[[22]]],"type":"MultiPolygon","properties":{"STATE_CODE":"3","STATE_NAME":"Queensland"}},{"arcs":[[[-2,-7,23,24,25,-9]],[[26]]],"type":"MultiPolygon","properties":{"STATE_CODE":"4","STATE_NAME":"South Australia"}},{"arcs":[[[-25,27,28]],[[29]],[[30]],[[31]],[[32]]],"type":"MultiPolygon","properties":{"STATE_CODE":"5","STATE_NAME":"Western Australia"}},{"arcs":[[[33]],[[34]],[[35]],[[36]],[[37]],[[38]],[[39]],[[40]],[[41]]],"type":"MultiPolygon","properties":{"STATE_CODE":"6","STATE_NAME":"Tasmania"}},{"arcs":[[[-10,-26,-29,42]],[[43]],[[44]],[[45]],[[46]],[[47]],[[48]],[[49]],[[50]],[[51]],[[52]],[[53]],[[54]]],"type":"MultiPolygon","properties":{"STATE_CODE":"7","STATE_NAME":"Northern Territory"}},{"arcs":[[-5]],"type":"Polygon","properties":{"STATE_CODE":"8","STATE_NAME":"Australian Capital Territory"}}]}}}